NOAA 17                 
1 27453U 02032A   26061.87059807  .00000279  00000+0  13548-3 0  9998
2 27453  98.8528  26.4286 0010749 303.3912  56.6238 14.26184367231832
NOAA 18                 
1 28654U 05018A   26061.74737248  .00000078  00000+0  64483-4 0  9999
2 28654  98.8168 142.9515 0015353  93.8513 266.4416 14.13709229 71274
NOAA 19                 
1 33591U 09005A   26061.79812423  .00000068  00000+0  60255-4 0  9991
2 33591  98.9621 132.5573 0013160 335.1722  24.8815 14.13455227879453
SUOMI NPP               
1 37849U 11061A   26061.83572128  .00000092  00000+0  64718-4 0  9991
2 37849  98.7862   3.4932 0000453 296.0738  64.0391 14.19541209743352
NOAA 20 (JPSS-1)        
1 43013U 17073A   26061.77987135  .00000086  00000+0  61486-4 0  9993
2 43013  98.7684   2.2361 0000893 145.9894 214.1340 14.19533889429370
NOAA 21 (JPSS-2)        
1 54234U 22150A   26061.81465529  .00000098  00000+0  67225-4 0  9995
2 54234  98.7547   2.1596 0002485 118.8497 241.2928 14.19549983171459
