[{"OBJECT_NAME":"NOAA 17","OBJECT_ID":"2002-032A","EPOCH":"2026-03-02T20:53:39.673248","MEAN_MOTION":14.26184367,"ECCENTRICITY":0.0010749,"INCLINATION":98.8528,"RA_OF_ASC_NODE":26.4286,"ARG_OF_PERICENTER":303.3912,"MEAN_ANOMALY":56.6238,"EPHEMERIS_TYPE":0,"CLASSIFICATION_TYPE":"U","NORAD_CAT_ID":27453,"ELEMENT_SET_NO":999,"REV_AT_EPOCH":23183,"BSTAR":0.00013548,"MEAN_MOTION_DOT":2.79e-6,"MEAN_MOTION_DDOT":0},{"OBJECT_NAME":"NOAA 18","OBJECT_ID":"2005-018A","EPOCH":"2026-03-02T17:56:12.982272","MEAN_MOTION":14.13709229,"ECCENTRICITY":0.0015353,"INCLINATION":98.8168,"RA_OF_ASC_NODE":142.9515,"ARG_OF_PERICENTER":93.8513,"MEAN_ANOMALY":266.4416,"EPHEMERIS_TYPE":0,"CLASSIFICATION_TYPE":"U","NORAD_CAT_ID":28654,"ELEMENT_SET_NO":999,"REV_AT_EPOCH":7127,"BSTAR":6.4483e-5,"MEAN_MOTION_DOT":7.8e-7,"MEAN_MOTION_DDOT":0},{"OBJECT_NAME":"NOAA 19","OBJECT_ID":"2009-005A","EPOCH":"2026-03-02T19:09:17.933472","MEAN_MOTION":14.13455227,"ECCENTRICITY":0.001316,"INCLINATION":98.9621,"RA_OF_ASC_NODE":132.5573,"ARG_OF_PERICENTER":335.1722,"MEAN_ANOMALY":24.8815,"EPHEMERIS_TYPE":0,"CLASSIFICATION_TYPE":"U","NORAD_CAT_ID":33591,"ELEMENT_SET_NO":999,"REV_AT_EPOCH":87945,"BSTAR":6.0255e-5,"MEAN_MOTION_DOT":6.8e-7,"MEAN_MOTION_DDOT":0},{"OBJECT_NAME":"SUOMI NPP","OBJECT_ID":"2011-061A","EPOCH":"2026-03-02T20:03:26.318592","MEAN_MOTION":14.19541209,"ECCENTRICITY":4.53e-5,"INCLINATION":98.7862,"RA_OF_ASC_NODE":3.4932,"ARG_OF_PERICENTER":296.0738,"MEAN_ANOMALY":64.0391,"EPHEMERIS_TYPE":0,"CLASSIFICATION_TYPE":"U","NORAD_CAT_ID":37849,"ELEMENT_SET_NO":999,"REV_AT_EPOCH":74335,"BSTAR":6.4718e-5,"MEAN_MOTION_DOT":9.2e-7,"MEAN_MOTION_DDOT":0},{"OBJECT_NAME":"NOAA 20 (JPSS-1)","OBJECT_ID":"2017-073A","EPOCH":"2026-03-02T18:43:00.884640","MEAN_MOTION":14.19533889,"ECCENTRICITY":8.93e-5,"INCLINATION":98.7684,"RA_OF_ASC_NODE":2.2361,"ARG_OF_PERICENTER":145.9894,"MEAN_ANOMALY":214.134,"EPHEMERIS_TYPE":0,"CLASSIFICATION_TYPE":"U","NORAD_CAT_ID":43013,"ELEMENT_SET_NO":999,"REV_AT_EPOCH":42937,"BSTAR":6.1486e-5,"MEAN_MOTION_DOT":8.6e-7,"MEAN_MOTION_DDOT":0},{"OBJECT_NAME":"NOAA 21 (JPSS-2)","OBJECT_ID":"2022-150A","EPOCH":"2026-03-02T19:33:06.217056","MEAN_MOTION":14.19549983,"ECCENTRICITY":0.0002485,"INCLINATION":98.7547,"RA_OF_ASC_NODE":2.1596,"ARG_OF_PERICENTER":118.8497,"MEAN_ANOMALY":241.2928,"EPHEMERIS_TYPE":0,"CLASSIFICATION_TYPE":"U","NORAD_CAT_ID":54234,"ELEMENT_SET_NO":999,"REV_AT_EPOCH":17145,"BSTAR":6.7225e-5,"MEAN_MOTION_DOT":9.8e-7,"MEAN_MOTION_DDOT":0}]
